[
  {
    "OBJECT_NAME": "STARLINK-30137",
    "OBJECT_ID": "23079W",
    "EPOCH": "2025-11-11T05:19:54.063264",
    "MEAN_MOTION": 15.02533571,
    "ECCENTRICITY": 0.0001102,
    "INCLINATION": 43.0044,
    "RA_OF_ASC_NODE": 31.0084,
    "ARG_OF_PERICENTER": 263.4995,
    "MEAN_ANOMALY": 96.5722,
    "EPHEMERIS_TYPE": 0,
    "CLASSIFICATION_TYPE": "U",
    "NORAD_CAT_ID": 56843,
    "ELEMENT_SET_NO": 999,
    "REV_AT_EPOCH": 13506,
    "BSTAR": 9.22e-05,
    "MEAN_MOTION_DOT": 1.042e-05,
    "MEAN_MOTION_DDOT": 0.0,
    "TLE_LINE1": "1 56843U 23079W   25315.22215351  .00001042  00000+0  92200-4 0  9997",
    "TLE_LINE2": "2 56843  43.0044  31.0084 0001102 263.4995  96.5722 15.02533571135069",
    "COMMENT": "Grouped by shell and plane from TLE"
  },
  {
    "OBJECT_NAME": "STARLINK-30136",
    "OBJECT_ID": "23079X",
    "EPOCH": "2025-11-11T04:22:32.039328",
    "MEAN_MOTION": 15.02536757,
    "ECCENTRICITY": 0.0001254,
    "INCLINATION": 43.0042,
    "RA_OF_ASC_NODE": 31.5543,
    "ARG_OF_PERICENTER": 277.5969,
    "MEAN_ANOMALY": 82.4731,
    "EPHEMERIS_TYPE": 0,
    "CLASSIFICATION_TYPE": "U",
    "NORAD_CAT_ID": 56844,
    "ELEMENT_SET_NO": 999,
    "REV_AT_EPOCH": 13505,
    "BSTAR": 2.7082000000000003e-05,
    "MEAN_MOTION_DOT": 1.62e-06,
    "MEAN_MOTION_DDOT": 0.0,
    "TLE_LINE1": "1 56844U 23079X   25315.18231527  .00000162  00000+0  27082-4 0  9994",
    "TLE_LINE2": "2 56844  43.0042  31.5543 0001254 277.5969  82.4731 15.02536757135050",
    "COMMENT": "Grouped by shell and plane from TLE"
  },
  {
    "OBJECT_NAME": "STARLINK-5850",
    "OBJECT_ID": "23088B",
    "EPOCH": "2025-11-11T06:49:23.119968",
    "MEAN_MOTION": 15.02533063,
    "ECCENTRICITY": 0.0001242,
    "INCLINATION": 43.0041,
    "RA_OF_ASC_NODE": 31.2721,
    "ARG_OF_PERICENTER": 271.8648,
    "MEAN_ANOMALY": 88.2052,
    "EPHEMERIS_TYPE": 0,
    "CLASSIFICATION_TYPE": "U",
    "NORAD_CAT_ID": 57049,
    "ELEMENT_SET_NO": 999,
    "REV_AT_EPOCH": 13274,
    "BSTAR": 0.00021939,
    "MEAN_MOTION_DOT": 2.761e-05,
    "MEAN_MOTION_DDOT": 0.0,
    "TLE_LINE1": "1 57049U 23088B   25315.28429537  .00002761  00000+0  21939-3 0  9994",
    "TLE_LINE2": "2 57049  43.0041  31.2721 0001242 271.8648  88.2052 15.02533063132740",
    "COMMENT": "Grouped by shell and plane from TLE"
  },
  {
    "OBJECT_NAME": "STARLINK-5845",
    "OBJECT_ID": "23088C",
    "EPOCH": "2025-11-11T06:23:47.717664",
    "MEAN_MOTION": 15.02540618,
    "ECCENTRICITY": 0.0001824,
    "INCLINATION": 43.0063,
    "RA_OF_ASC_NODE": 31.1422,
    "ARG_OF_PERICENTER": 276.9053,
    "MEAN_ANOMALY": 83.1582,
    "EPHEMERIS_TYPE": 0,
    "CLASSIFICATION_TYPE": "U",
    "NORAD_CAT_ID": 57050,
    "ELEMENT_SET_NO": 999,
    "REV_AT_EPOCH": 13255,
    "BSTAR": 0.00012071,
    "MEAN_MOTION_DOT": 1.427e-05,
    "MEAN_MOTION_DDOT": 0.0,
    "TLE_LINE1": "1 57050U 23088C   25315.26652451  .00001427  00000+0  12071-3 0  9992",
    "TLE_LINE2": "2 57050  43.0063  31.1422 0001824 276.9053  83.1582 15.02540618132550",
    "COMMENT": "Grouped by shell and plane from TLE"
  },
  {
    "OBJECT_NAME": "STARLINK-5839",
    "OBJECT_ID": "23088D",
    "EPOCH": "2025-11-11T04:52:52.474368",
    "MEAN_MOTION": 15.02519249,
    "ECCENTRICITY": 0.0001247,
    "INCLINATION": 43.0043,
    "RA_OF_ASC_NODE": 31.5252,
    "ARG_OF_PERICENTER": 280.572,
    "MEAN_ANOMALY": 79.4981,
    "EPHEMERIS_TYPE": 0,
    "CLASSIFICATION_TYPE": "U",
    "NORAD_CAT_ID": 57051,
    "ELEMENT_SET_NO": 999,
    "REV_AT_EPOCH": 13254,
    "BSTAR": 0.00024006,
    "MEAN_MOTION_DOT": 3.039e-05,
    "MEAN_MOTION_DDOT": 0.0,
    "TLE_LINE1": "1 57051U 23088D   25315.20338512  .00003039  00000+0  24006-3 0  9998",
    "TLE_LINE2": "2 57051  43.0043  31.5252 0001247 280.5720  79.4981 15.02519249132541",
    "COMMENT": "Grouped by shell and plane from TLE"
  },
  {
    "OBJECT_NAME": "STARLINK-5860",
    "OBJECT_ID": "23088E",
    "EPOCH": "2025-11-11T04:57:39.208320",
    "MEAN_MOTION": 15.0254228,
    "ECCENTRICITY": 0.000134,
    "INCLINATION": 43.0037,
    "RA_OF_ASC_NODE": 31.5468,
    "ARG_OF_PERICENTER": 267.0184,
    "MEAN_ANOMALY": 93.0505,
    "EPHEMERIS_TYPE": 0,
    "CLASSIFICATION_TYPE": "U",
    "NORAD_CAT_ID": 57052,
    "ELEMENT_SET_NO": 999,
    "REV_AT_EPOCH": 13254,
    "BSTAR": 0.00018071000000000002,
    "MEAN_MOTION_DOT": 2.239e-05,
    "MEAN_MOTION_DDOT": 0.0,
    "TLE_LINE1": "1 57052U 23088E   25315.20670380  .00002239  00000+0  18071-3 0  9997",
    "TLE_LINE2": "2 57052  43.0037  31.5468 0001340 267.0184  93.0505 15.02542280132547",
    "COMMENT": "Grouped by shell and plane from TLE"
  },
  {
    "OBJECT_NAME": "STARLINK-5865",
    "OBJECT_ID": "23088F",
    "EPOCH": "2025-11-11T06:09:24.700032",
    "MEAN_MOTION": 15.02535372,
    "ECCENTRICITY": 0.0001077,
    "INCLINATION": 43.0024,
    "RA_OF_ASC_NODE": 31.0612,
    "ARG_OF_PERICENTER": 272.3361,
    "MEAN_ANOMALY": 87.7358,
    "EPHEMERIS_TYPE": 0,
    "CLASSIFICATION_TYPE": "U",
    "NORAD_CAT_ID": 57053,
    "ELEMENT_SET_NO": 999,
    "REV_AT_EPOCH": 13255,
    "BSTAR": 7.025e-05,
    "MEAN_MOTION_DOT": 7.45e-06,
    "MEAN_MOTION_DDOT": 0.0,
    "TLE_LINE1": "1 57053U 23088F   25315.25653588  .00000745  00000+0  70250-4 0  9992",
    "TLE_LINE2": "2 57053  43.0024  31.0612 0001077 272.3361  87.7358 15.02535372132554",
    "COMMENT": "Grouped by shell and plane from TLE"
  },
  {
    "OBJECT_NAME": "STARLINK-5881",
    "OBJECT_ID": "23088G",
    "EPOCH": "2025-11-11T05:53:25.768032",
    "MEAN_MOTION": 15.02533682,
    "ECCENTRICITY": 0.0001178,
    "INCLINATION": 43.0035,
    "RA_OF_ASC_NODE": 30.9828,
    "ARG_OF_PERICENTER": 259.2514,
    "MEAN_ANOMALY": 100.8195,
    "EPHEMERIS_TYPE": 0,
    "CLASSIFICATION_TYPE": "U",
    "NORAD_CAT_ID": 57054,
    "ELEMENT_SET_NO": 999,
    "REV_AT_EPOCH": 13255,
    "BSTAR": 9.8097e-05,
    "MEAN_MOTION_DOT": 1.122e-05,
    "MEAN_MOTION_DDOT": 0.0,
    "TLE_LINE1": "1 57054U 23088G   25315.24543713  .00001122  00000+0  98097-4 0  9999",
    "TLE_LINE2": "2 57054  43.0035  30.9828 0001178 259.2514 100.8195 15.02533682132558",
    "COMMENT": "Grouped by shell and plane from TLE"
  },
  {
    "OBJECT_NAME": "STARLINK-6237",
    "OBJECT_ID": "23088H",
    "EPOCH": "2025-11-11T06:20:35.930400",
    "MEAN_MOTION": 15.02537375,
    "ECCENTRICITY": 0.0001087,
    "INCLINATION": 43.0019,
    "RA_OF_ASC_NODE": 31.1228,
    "ARG_OF_PERICENTER": 283.7343,
    "MEAN_ANOMALY": 76.3378,
    "EPHEMERIS_TYPE": 0,
    "CLASSIFICATION_TYPE": "U",
    "NORAD_CAT_ID": 57055,
    "ELEMENT_SET_NO": 999,
    "REV_AT_EPOCH": 13255,
    "BSTAR": 9.4551e-05,
    "MEAN_MOTION_DOT": 1.074e-05,
    "MEAN_MOTION_DDOT": 0.0,
    "TLE_LINE1": "1 57055U 23088H   25315.26430475  .00001074  00000+0  94551-4 0  9999",
    "TLE_LINE2": "2 57055  43.0019  31.1228 0001087 283.7343  76.3378 15.02537375132552",
    "COMMENT": "Grouped by shell and plane from TLE"
  },
  {
    "OBJECT_NAME": "STARLINK-6353",
    "OBJECT_ID": "23088J",
    "EPOCH": "2025-11-11T05:55:01.670304",
    "MEAN_MOTION": 15.02536117,
    "ECCENTRICITY": 9.82e-05,
    "INCLINATION": 43.0037,
    "RA_OF_ASC_NODE": 30.9913,
    "ARG_OF_PERICENTER": 275.3694,
    "MEAN_ANOMALY": 84.7036,
    "EPHEMERIS_TYPE": 0,
    "CLASSIFICATION_TYPE": "U",
    "NORAD_CAT_ID": 57056,
    "ELEMENT_SET_NO": 999,
    "REV_AT_EPOCH": 13255,
    "BSTAR": 1.1579e-05,
    "MEAN_MOTION_DOT": -4.7e-07,
    "MEAN_MOTION_DDOT": 0.0,
    "TLE_LINE1": "1 57056U 23088J   25315.24654711 -.00000047  00000+0  11579-4 0  9998",
    "TLE_LINE2": "2 57056  43.0037  30.9913 0000982 275.3694  84.7036 15.02536117132557",
    "COMMENT": "Grouped by shell and plane from TLE"
  },
  {
    "OBJECT_NAME": "STARLINK-6223",
    "OBJECT_ID": "23088K",
    "EPOCH": "2025-11-11T05:50:13.694784",
    "MEAN_MOTION": 15.02535835,
    "ECCENTRICITY": 0.0001083,
    "INCLINATION": 43.005,
    "RA_OF_ASC_NODE": 30.9445,
    "ARG_OF_PERICENTER": 270.0193,
    "MEAN_ANOMALY": 90.0525,
    "EPHEMERIS_TYPE": 0,
    "CLASSIFICATION_TYPE": "U",
    "NORAD_CAT_ID": 57057,
    "ELEMENT_SET_NO": 999,
    "REV_AT_EPOCH": 13255,
    "BSTAR": 0.0,
    "MEAN_MOTION_DOT": -2.14e-06,
    "MEAN_MOTION_DDOT": 0.0,
    "TLE_LINE1": "1 57057U 23088K   25315.24321406 -.00000214  00000+0 -80463-6 0  9998",
    "TLE_LINE2": "2 57057  43.0050  30.9445 0001083 270.0193  90.0525 15.02535835132551",
    "COMMENT": "Grouped by shell and plane from TLE"
  },
  {
    "OBJECT_NAME": "STARLINK-6217",
    "OBJECT_ID": "23088L",
    "EPOCH": "2025-11-11T04:24:05.626944",
    "MEAN_MOTION": 15.02538249,
    "ECCENTRICITY": 0.0001134,
    "INCLINATION": 43.0048,
    "RA_OF_ASC_NODE": 31.3781,
    "ARG_OF_PERICENTER": 274.847,
    "MEAN_ANOMALY": 85.2243,
    "EPHEMERIS_TYPE": 0,
    "CLASSIFICATION_TYPE": "U",
    "NORAD_CAT_ID": 57058,
    "ELEMENT_SET_NO": 999,
    "REV_AT_EPOCH": 13254,
    "BSTAR": 3.8866000000000004e-05,
    "MEAN_MOTION_DOT": 3.21e-06,
    "MEAN_MOTION_DDOT": 0.0,
    "TLE_LINE1": "1 57058U 23088L   25315.18339846  .00000321  00000+0  38866-4 0  9994",
    "TLE_LINE2": "2 57058  43.0048  31.3781 0001134 274.8470  85.2243 15.02538249132548",
    "COMMENT": "Grouped by shell and plane from TLE"
  },
  {
    "OBJECT_NAME": "STARLINK-6211",
    "OBJECT_ID": "23088M",
    "EPOCH": "2025-11-11T06:38:10.343040",
    "MEAN_MOTION": 15.02541782,
    "ECCENTRICITY": 0.0001565,
    "INCLINATION": 43.0039,
    "RA_OF_ASC_NODE": 31.2022,
    "ARG_OF_PERICENTER": 271.5342,
    "MEAN_ANOMALY": 88.5321,
    "EPHEMERIS_TYPE": 0,
    "CLASSIFICATION_TYPE": "U",
    "NORAD_CAT_ID": 57059,
    "ELEMENT_SET_NO": 999,
    "REV_AT_EPOCH": 13255,
    "BSTAR": 0.00015402,
    "MEAN_MOTION_DOT": 1.878e-05,
    "MEAN_MOTION_DDOT": 0.0,
    "TLE_LINE1": "1 57059U 23088M   25315.27650860  .00001878  00000+0  15402-3 0  9995",
    "TLE_LINE2": "2 57059  43.0039  31.2022 0001565 271.5342  88.5321 15.02541782132556",
    "COMMENT": "Grouped by shell and plane from TLE"
  }
]